{"type": "FeatureCollection", "features": [ {"type": "Feature", "properties": {"norad_id": 42987, "name": "SKYSAT-C11", "group": "resource", "lat": -40.05286499935536, "lon": -46.43284721112953, "alt_km": 429.3459926045434, "timestamp": "2025-12-27T23:26:37.011139+00:00", "meta": {"OBJECT_NAME": "SKYSAT-C11", "OBJECT_ID": "2017-068A", "EPOCH": "2025-12-27T08:31:58.852128", "MEAN_MOTION": 15.48089596, "ECCENTRICITY": 0.0001167, "INCLINATION": 97.4147, "RA_OF_ASC_NODE": 139.2154, "ARG_OF_PERICENTER": 92.1165, "MEAN_ANOMALY": 268.0219, "EPHEMERIS_TYPE": 0, "CLASSIFICATION_TYPE": "U", "NORAD_CAT_ID": 42987, "ELEMENT_SET_NO": 999, "REV_AT_EPOCH": 45657, "BSTAR": 0.0004832, "MEAN_MOTION_DOT": 0.00025283, "MEAN_MOTION_DDOT": 0}, "tle": {"line1": "1 42987U 17068A   25361.35554227  .00025283  00000+0  48320-3 0  9991", "line2": "2 42987  97.4147 139.2154 0001167  92.1165 268.0219 15.48089596456578"}}, "geometry": {"type": "Point", "coordinates": [-46.43284721112953, -40.05286499935536]}}, {"type": "Feature", "properties": {"norad_id": 42988, "name": "SKYSAT-C10", "group": "resource", "lat": 18.03400376966697, "lon": -44.6960682683256, "alt_km": 470.41065111206626, "timestamp": "2025-12-27T23:26:37.011149+00:00", "meta": {"OBJECT_NAME": "SKYSAT-C10", "OBJECT_ID": "2017-068B", "EPOCH": "2025-12-27T02:21:25.171200", "MEAN_MOTION": 15.31645862, "ECCENTRICITY": 0.00035297, "INCLINATION": 97.4265, "RA_OF_ASC_NODE": 131.9896, "ARG_OF_PERICENTER": 96.9567, "MEAN_ANOMALY": 263.2076, "EPHEMERIS_TYPE": 0, "CLASSIFICATION_TYPE": "U", "NORAD_CAT_ID": 42988, "ELEMENT_SET_NO": 999, "REV_AT_EPOCH": 45599, "BSTAR": 0.00037534092, "MEAN_MOTION_DOT": 0.00011398, "MEAN_MOTION_DDOT": 0}, "tle": {"line1": "1 42988U 17068B   25361.09820800  .00011398  00000+0  37534-3 0  9993", "line2": "2 42988  97.4265 131.9896 0003529  96.9567 263.2076 15.31645862455993"}}, "geometry": {"type": "Point", "coordinates": [-44.6960682683256, 18.03400376966697]}}, {"type": "Feature", "properties": {"norad_id": 42989, "name": "SKYSAT-C9", "group": "resource", "lat": -56.29340759209331, "lon": -58.91006338491351, "alt_km": 470.33558807265854, "timestamp": "2025-12-27T23:26:37.011160+00:00", "meta": {"OBJECT_NAME": "SKYSAT-C9", "OBJECT_ID": "2017-068C", "EPOCH": "2025-12-27T08:20:52.313280", "MEAN_MOTION": 15.36425529, "ECCENTRICITY": 0.0010171, "INCLINATION": 97.419, "RA_OF_ASC_NODE": 131.7202, "ARG_OF_PERICENTER": 40.5412, "MEAN_ANOMALY": 319.6587, "EPHEMERIS_TYPE": 0, "CLASSIFICATION_TYPE": "U", "NORAD_CAT_ID": 42989, "ELEMENT_SET_NO": 999, "REV_AT_EPOCH": 45632, "BSTAR": 0.00039897, "MEAN_MOTION_DOT": 0.00014127, "MEAN_MOTION_DDOT": 0}, "tle": {"line1": "1 42989U 17068C   25361.34782770  .00014127  00000+0  39897-3 0  9992", "line2": "2 42989  97.4190 131.7202 0010171  40.5412 319.6587 15.36425529456327"}}, "geometry": {"type": "Point", "coordinates": [-58.91006338491351, -56.29340759209331]}}, {"type": "Feature", "properties": {"norad_id": 42990, "name": "SKYSAT-C8", "group": "resource", "lat": 34.65427388225084, "lon": 126.87189595870112, "alt_km": 464.43980600004033, "timestamp": "2025-12-27T23:26:37.011171+00:00", "meta": {"OBJECT_NAME": "SKYSAT-C8", "OBJECT_ID": "2017-068D", "EPOCH": "2025-12-27T07:37:42.314304", "MEAN_MOTION": 15.33249066, "ECCENTRICITY": 9.68e-05, "INCLINATION": 97.4286, "RA_OF_ASC_NODE": 131.3845, "ARG_OF_PERICENTER": 251.4246, "MEAN_ANOMALY": 108.6891, "EPHEMERIS_TYPE": 0, "CLASSIFICATION_TYPE": "U", "NORAD_CAT_ID": 42990, "ELEMENT_SET_NO": 999, "REV_AT_EPOCH": 45594, "BSTAR": 0.00042375, "MEAN_MOTION_DOT": 0.00013544, "MEAN_MOTION_DDOT": 0}, "tle": {"line1": "1 42990U 17068D   25361.31785086  .00013544  00000+0  42375-3 0  9991", "line2": "2 42990  97.4286 131.3845 0000968 251.4246 108.6891 15.33249066455943"}}, "geometry": {"type": "Point", "coordinates": [126.87189595870112, 34.65427388225084]}}, {"type": "Feature", "properties": {"norad_id": 42991, "name": "SKYSAT-C7", "group": "resource", "lat": -37.287296083534656, "lon": -52.62687294055662, "alt_km": 478.325669117854, "timestamp": "2025-12-27T23:26:37.011183+00:00", "meta": {"OBJECT_NAME": "SKYSAT-C7", "OBJECT_ID": "2017-068E", "EPOCH": "2025-12-27T08:23:41.213184", "MEAN_MOTION": 15.32641795, "ECCENTRICITY": 0.0006679, "INCLINATION": 97.4293, "RA_OF_ASC_NODE": 132.446, "ARG_OF_PERICENTER": 10.1488, "MEAN_ANOMALY": 349.9887, "EPHEMERIS_TYPE": 0, "CLASSIFICATION_TYPE": "U", "NORAD_CAT_ID": 42991, "ELEMENT_SET_NO": 999, "REV_AT_EPOCH": 45601, "BSTAR": 0.00037951, "MEAN_MOTION_DOT": 0.00011897, "MEAN_MOTION_DDOT": 0}, "tle": {"line1": "1 42991U 17068E   25361.34978256  .00011897  00000+0  37951-3 0  9991", "line2": "2 42991  97.4293 132.4460 0006679  10.1488 349.9887 15.32641795456018"}}, "geometry": {"type": "Point", "coordinates": [-52.62687294055662, -37.287296083534656]}}, {"type": "Feature", "properties": {"norad_id": 42992, "name": "SKYSAT-C6", "group": "resource", "lat": -70.29002958894011, "lon": 154.8721596615589, "alt_km": 478.896510431412, "timestamp": "2025-12-27T23:26:37.011194+00:00", "meta": {"OBJECT_NAME": "SKYSAT-C6", "OBJECT_ID": "2017-068F", "EPOCH": "2025-12-26T21:06:12.822048", "MEAN_MOTION": 15.31783145, "ECCENTRICITY": 0.0004677, "INCLINATION": 97.4325, "RA_OF_ASC_NODE": 132.4006, "ARG_OF_PERICENTER": 43.8732, "MEAN_ANOMALY": 316.288, "EPHEMERIS_TYPE": 0, "CLASSIFICATION_TYPE": "U", "NORAD_CAT_ID": 42992, "ELEMENT_SET_NO": 999, "REV_AT_EPOCH": 45592, "BSTAR": 0.00040064, "MEAN_MOTION_DOT": 0.00012227, "MEAN_MOTION_DDOT": 0}, "tle": {"line1": "1 42992U 17068F   25360.87931507  .00012227  00000+0  40064-3 0  9994", "line2": "2 42992  97.4325 132.4006 0004677  43.8732 316.2880 15.31783145455926"}}, "geometry": {"type": "Point", "coordinates": [154.8721596615589, -70.29002958894011]}}, {"type": "Feature", "properties": {"norad_id": 43111, "name": "CARTOSAT-2F", "group": "resource", "lat": 74.3815459967784, "lon": 31.539329481928107, "alt_km": 499.96029036164964, "timestamp": "2025-12-27T23:26:37.011204+00:00", "meta": {"OBJECT_NAME": "CARTOSAT-2F", "OBJECT_ID": "2018-004A", "EPOCH": "2025-12-27T12:02:40.044768", "MEAN_MOTION": 15.19276291, "ECCENTRICITY": 0.0001632, "INCLINATION": 97.4297, "RA_OF_ASC_NODE": 58.899, "ARG_OF_PERICENTER": 109.3317, "MEAN_ANOMALY": 250.8094, "EPHEMERIS_TYPE": 0, "CLASSIFICATION_TYPE": "U", "NORAD_CAT_ID": 43111, "ELEMENT_SET_NO": 999, "REV_AT_EPOCH": 44126, "BSTAR": 0.00047218, "MEAN_MOTION_DOT": 9.898e-05, "MEAN_MOTION_DDOT": 0}, "tle": {"line1": "1 43111U 18004A   25361.50185237  .00009898  00000+0  47218-3 0  9999", "line2": "2 43111  97.4297  58.8990 0001632 109.3317 250.8094 15.19276291441263"}}, "geometry": {"type": "Point", "coordinates": [31.539329481928107, 74.3815459967784]}}, {"type": "Feature", "properties": {"norad_id": 43259, "name": "GAOFEN-1 02", "group": "resource", "lat": 17.616951924463365, "lon": 57.18480906715488, "alt_km": 642.6185118672474, "timestamp": "2025-12-27T23:26:37.011214+00:00", "meta": {"OBJECT_NAME": "GAOFEN-1 02", "OBJECT_ID": "2018-031A", "EPOCH": "2025-12-27T11:58:39.521856", "MEAN_MOTION": 14.76446158, "ECCENTRICITY": 0.0002762, "INCLINATION": 98.0783, "RA_OF_ASC_NODE": 59.292, "ARG_OF_PERICENTER": 164.9179, "MEAN_ANOMALY": 195.2114, "EPHEMERIS_TYPE": 0, "CLASSIFICATION_TYPE": "U", "NORAD_CAT_ID": 43259, "ELEMENT_SET_NO": 999, "REV_AT_EPOCH": 41736, "BSTAR": 0.00016511, "MEAN_MOTION_DOT": 1.097e-05, "MEAN_MOTION_DDOT": 0}, "tle": {"line1": "1 43259U 18031A   25361.49906854  .00001097  00000+0  16511-3 0  9991", "line2": "2 43259  98.0783  59.2920 0002762 164.9179 195.2114 14.76446158417361"}}, "geometry": {"type": "Point", "coordinates": [57.18480906715488, 17.616951924463365]}}, {"type": "Feature", "properties": {"norad_id": 43260, "name": "GAOFEN-1 03", "group": "resource", "lat": 45.35539289834232, "lon": -112.08693816376666, "alt_km": 637.1368522088824, "timestamp": "2025-12-27T23:26:37.011223+00:00", "meta": {"OBJECT_NAME": "GAOFEN-1 03", "OBJECT_ID": "2018-031B", "EPOCH": "2025-12-27T13:04:46.207200", "MEAN_MOTION": 14.76429504, "ECCENTRICITY": 0.0001674, "INCLINATION": 98.0778, "RA_OF_ASC_NODE": 59.2138, "ARG_OF_PERICENTER": 246.2931, "MEAN_ANOMALY": 113.8103, "EPHEMERIS_TYPE": 0, "CLASSIFICATION_TYPE": "U", "NORAD_CAT_ID": 43260, "ELEMENT_SET_NO": 999, "REV_AT_EPOCH": 41736, "BSTAR": 0.00015755, "MEAN_MOTION_DOT": 1.044e-05, "MEAN_MOTION_DDOT": 0}, "tle": {"line1": "1 43260U 18031B   25361.54497925  .00001044  00000+0  15755-3 0  9994", "line2": "2 43260  98.0778  59.2138 0001674 246.2931 113.8103 14.76429504417369"}}, "geometry": {"type": "Point", "coordinates": [-112.08693816376666, 45.35539289834232]}}, {"type": "Feature", "properties": {"norad_id": 43262, "name": "GAOFEN-1 04", "group": "resource", "lat": -79.3064700207027, "lon": -168.96058794909354, "alt_km": 648.2502493102411, "timestamp": "2025-12-27T23:26:37.011233+00:00", "meta": {"OBJECT_NAME": "GAOFEN-1 04", "OBJECT_ID": "2018-031D", "EPOCH": "2025-12-27T12:29:49.178112", "MEAN_MOTION": 14.76436819, "ECCENTRICITY": 4.69e-05, "INCLINATION": 98.0784, "RA_OF_ASC_NODE": 59.36, "ARG_OF_PERICENTER": 69.6265, "MEAN_ANOMALY": 290.4995, "EPHEMERIS_TYPE": 0, "CLASSIFICATION_TYPE": "U", "NORAD_CAT_ID": 43262, "ELEMENT_SET_NO": 999, "REV_AT_EPOCH": 41735, "BSTAR": 0.00018623, "MEAN_MOTION_DOT": 1.243e-05, "MEAN_MOTION_DDOT": 0}, "tle": {"line1": "1 43262U 18031D   25361.52070808  .00001243  00000+0  18623-3 0  9999", "line2": "2 43262  98.0784  59.3600 0000469  69.6265 290.4995 14.76436819417358"}}, "geometry": {"type": "Point", "coordinates": [-168.96058794909354, -79.3064700207027]}}]}